[{"OBJECT_NAME":"STARLINK-36157","OBJECT_ID":"2025-286J","EPOCH":"2026-03-09T22:35:23.838432","MEAN_MOTION":15.30193765,"ECCENTRICITY":7.554e-5,"INCLINATION":53.1613,"RA_OF_ASC_NODE":357.398,"ARG_OF_PERICENTER":69.1163,"MEAN_ANOMALY":290.9919,"EPHEMERIS_TYPE":0,"CLASSIFICATION_TYPE":"U","NORAD_CAT_ID":66933,"ELEMENT_SET_NO":999,"REV_AT_EPOCH":1545,"BSTAR":0.0011434674,"MEAN_MOTION_DOT":0.00033654,"MEAN_MOTION_DDOT":0},{"OBJECT_NAME":"OBJECT D","OBJECT_ID":"2021-102D","EPOCH":"2026-03-09T14:47:14.426880","MEAN_MOTION":15.2846442,"ECCENTRICITY":0.0009157,"INCLINATION":97.3342,"RA_OF_ASC_NODE":112.2633,"ARG_OF_PERICENTER":187.6206,"MEAN_ANOMALY":172.4897,"EPHEMERIS_TYPE":0,"CLASSIFICATION_TYPE":"U","NORAD_CAT_ID":49398,"ELEMENT_SET_NO":999,"REV_AT_EPOCH":23880,"BSTAR":0.00046011,"MEAN_MOTION_DOT":0.00012697,"MEAN_MOTION_DDOT":0}]
